[{"OBJECT_NAME":"STARLINK-5410","OBJECT_ID":"2022-175BB","EPOCH":"2026-03-09T06:50:24.374976","MEAN_MOTION":15.08839528,"ECCENTRICITY":0.00013903,"INCLINATION":53.2186,"RA_OF_ASC_NODE":30.5688,"ARG_OF_PERICENTER":85.0605,"MEAN_ANOMALY":275.0546,"EPHEMERIS_TYPE":0,"CLASSIFICATION_TYPE":"U","NORAD_CAT_ID":54807,"ELEMENT_SET_NO":999,"REV_AT_EPOCH":18007,"BSTAR":-1.4335698e-5,"MEAN_MOTION_DOT":-5.16e-6,"MEAN_MOTION_DDOT":0},{"OBJECT_NAME":"LEMUR-2-NEUROSPICY","OBJECT_ID":"2025-061E","EPOCH":"2026-03-09T21:29:47.005152","MEAN_MOTION":15.13370729,"ECCENTRICITY":0.00155025,"INCLINATION":97.5545,"RA_OF_ASC_NODE":45.3302,"ARG_OF_PERICENTER":239.5457,"MEAN_ANOMALY":120.4243,"EPHEMERIS_TYPE":0,"CLASSIFICATION_TYPE":"U","NORAD_CAT_ID":63355,"ELEMENT_SET_NO":999,"REV_AT_EPOCH":5259,"BSTAR":0.00032487858,"MEAN_MOTION_DOT":5.745e-5,"MEAN_MOTION_DDOT":0}]
